IRIDIUM 135             
1 43070U 17083A   26198.84971242  .00000011  00000+0 -30234-5 0  9995
2 43070  86.3983 309.1985 0002101  95.4018 264.7417 14.34217842448541
IRIDIUM 138             
1 43071U 17083B   26198.80531060  .00000138  00000+0  42211-4 0  9998
2 43071  86.4007 308.9169 0001714 104.5458 255.5928 14.34212951448529
IRIDIUM 116             
1 43072U 17083C   26198.84336469  .00000127  00000+0  38227-4 0  9999
2 43072  86.3993 309.1859 0001999 127.5831 232.5546 14.34217719448569
IRIDIUM 130             
1 43073U 17083D   26198.81165896  .00000138  00000+0  42281-4 0  9998
2 43073  86.3995 309.4782 0002318 100.6130 259.5327 14.34218539448501
IRIDIUM 151             
1 43074U 17083E   26198.71651828  .00000101  00000+0  29148-4 0  9990
2 43074  86.3988 309.2981 0002271  95.1269 265.0186 14.34218291448513
IRIDIUM 134             
1 43075U 17083F   26198.82434267  .00000041  00000+0  75080-5 0  9999
2 43075  86.3990 309.2614 0002248  95.7811 264.3641 14.34217808448491
IRIDIUM 137             
1 43076U 17083G   26198.83702866  .00000034  00000+0  51324-5 0  9991
2 43076  86.3991 309.3496 0002672  93.0247 267.1255 14.34217852448566
IRIDIUM 141             
1 43077U 17083H   26198.83068462  .00000065  00000+0  16300-4 0  9997
2 43077  86.3985 309.1812 0002169  93.9051 266.2393 14.34217834448566
IRIDIUM 153             
1 43078U 17083J   26198.64332632  .00000051  00000+0  11108-4 0  9996
2 43078  86.3959 277.7384 0002135  95.3228 264.8212 14.34217857449646
IRIDIUM 131             
1 43079U 17083K   26198.81799973  .00000048  00000+0  99913-5 0  9998
2 43079  86.3989 309.3745 0002223  93.9299 266.2151 14.34217960448498
IRIDIUM 144             
1 43249U 18030A   26198.92874205  .00000090  00000+0  24994-4 0  9997
2 43249  86.3955 277.5474 0002406  96.2387 263.9083 14.34218476434544
IRIDIUM 149             
1 43250U 18030B   26198.93508569  .00000067  00000+0  16813-4 0  9992
2 43250  86.3954 277.5113 0002262  93.7411 266.4043 14.34218060434560
IRIDIUM 157             
1 43251U 18030C   26198.95411489  .00000134  00000+0  40957-4 0  9990
2 43251  86.3957 277.5575 0002277  94.3814 265.7642 14.34218655434541
IRIDIUM 140             
1 43252U 18030D   26198.62430115  .00000134  00000+0  40918-4 0  9999
2 43252  86.3957 277.7078 0002252  95.6876 264.4577 14.34218170434553
IRIDIUM 145             
1 43253U 18030E   26198.68138247  .00000085  00000+0  23216-4 0  9994
2 43253  86.3956 277.6562 0002543  98.4503 261.6981 14.34217565434499
IRIDIUM 146             
1 43254U 18030F   26198.94142895  .00000057  00000+0  13366-4 0  9992
2 43254  86.3955 277.5596 0002385  96.2997 263.8470 14.34217617434543
IRIDIUM 148             
1 43255U 18030G   26198.77018046  .00000135  00000+0  41023-4 0  9992
2 43255  86.3958 277.6745 0002339  93.2014 266.9450 14.34218614434551
IRIDIUM 142             
1 43256U 18030H   26198.66869756  .00000046  00000+0  94888-5 0  9992
2 43256  86.3954 277.6049 0002434  95.4152 264.7322 14.34217866434505
IRIDIUM 150             
1 43257U 18030J   26198.77652040  .00000136  00000+0  41409-4 0  9991
2 43257  86.3958 277.6772 0002291  96.2538 263.8919 14.34217524434548
IRIDIUM 143             
1 43258U 18030K   26198.61795725  .00000091  00000+0  25562-4 0  9995
2 43258  86.3961 277.8373 0002367  97.1566 262.9899 14.34217972434451
IRIDIUM 161             
1 43478U 18047C   26198.60523225  .00000147  00000+0  37652-4 0  9995
2 43478  86.4459  75.7499 0002220  80.6904 279.4548 14.43276359429523
IRIDIUM 152             
1 43479U 18047D   26198.17206328  .00000058  00000+0  13724-4 0  9995
2 43479  86.3933  75.7924 0002137  84.1747 275.9693 14.34218440426788
IRIDIUM 147             
1 43480U 18047E   26198.66678565  .00000063  00000+0  15324-4 0  9991
2 43480  86.3935  75.5912 0002286  87.9760 272.1698 14.34217498426852
IRIDIUM 110             
1 43481U 18047F   26198.95219869  .00000135  00000+0  41022-4 0  9996
2 43481  86.3937  75.5645 0002059  77.8013 282.3414 14.34219252426887
IRIDIUM 162             
1 43482U 18047G   26198.94558720  .00000169  00000+0  44269-4 0  9991
2 43482  86.4457  75.4980 0002195  86.8786 273.2666 14.43279287429565
IRIDIUM 160             
1 43569U 18061A   26198.54919485  .00000115  00000+0  34125-4 0  9999
2 43569  86.3939  44.0968 0002225  86.7335 273.4115 14.34217595417726
IRIDIUM 166             
1 43570U 18061B   26198.50479737  .00000028  00000+0  30949-5 0  9992
2 43570  86.3937  44.0655 0002289  89.8334 270.3124 14.34217721417741
IRIDIUM 158             
1 43571U 18061C   26198.82192630  .00000043  00000+0  84021-5 0  9999
2 43571  86.3938  43.9422 0002109  88.1213 272.0224 14.34217857417753
IRIDIUM 165             
1 43572U 18061D   26198.56822414  .00000046  00000+0  95246-5 0  9995
2 43572  86.3940  44.0958 0002280  89.9584 270.1873 14.34217468417749
IRIDIUM 155             
1 43573U 18061E   26198.80924164  .00000034  00000+0  49116-5 0  9990
2 43573  86.3937  43.8625 0002147  90.4246 269.7196 14.34217566417749
